1 08820U 76039A   03077.75954989  .00000011  00000-0  10000-3 0  9228
2 08820 109.8210 150.6470 0044451 320.7311  39.0244  6.38664674371282
